ICEYE-X2                
1 43800U 18099AU  26192.92898321  .00003066  00000+0  15389-3 0  9997
2 43800  97.4355 246.3363 0009393 206.4593 153.6162 15.18016444416571
ICEYE-X4                
1 44390U 19038D   26192.92655119  .00007082  00000+0  24748-3 0  9993
2 44390  97.8753 227.3013 0012528 209.8640 150.1885 15.29834836385582
ICEYE-X7                
1 46496U 20068L   26192.96511516  .00006662  00000+0  21792-3 0  9992
2 46496  97.7499 160.6282 0005725 227.0147 133.0614 15.32052766318583
ICEYE-X6                
1 46497U 20068M   26192.93101226  .00002173  00000+0  15934-3 0  9997
2 46497  98.0983 187.7879 0007507  19.4503 340.7006 15.04655085316950
ICEYE-X21               
1 55049U 23001AS  26175.21618542  .01585954  23968-5  60214-3 0  9995
2 55049  97.3001 262.6152 0012377 285.9702  74.0225 16.24069885194757
ICEYE-X25               
1 56963U 23084AH  26192.92280955  .00029096  00000+0  32648-3 0  9997
2 56963  97.5899 340.9208 0004135 195.4082 164.7051 15.62608842171832
ICEYE-X31               
1 58288U 23174AJ  26192.97834934  .00010813  00000+0  31963-3 0  9992
2 58288  97.3780 268.7235 0002393 195.7085 164.4085 15.35108010148557
ICEYE-X34               
1 58294U 23174AQ  26192.81764760  .00106943  00000+0  86421-3 0  9990
2 58294  97.3866 285.2894 0001518 206.2260 153.8926 15.70506949149600
ICEYE-X35               
1 58302U 23174AY  26192.97315800  .00037128  00000+0  55451-3 0  9991
2 58302  97.3791 278.2705 0008112 117.9471 242.2606 15.54917627149192
ICEYE-X38               
1 59100U 24043C   26192.91883847  .00002476  00000+0  14395-3 0  9999
2 59100  97.8426 337.3531 0002650  30.4945 329.6439 15.13074383115419
ICEYE-X37               
1 59102U 24043E   26192.82754868  .00001587  00000+0  11239-3 0  9997
2 59102  97.8333 330.2216 0013644 286.8147  73.1582 15.06279880128792
ICEYE-X36               
1 59103U 24043F   26192.68427479  .00002159  00000+0  14771-3 0  9997
2 59103  97.8388 331.1980 0005049 227.4607 132.6194 15.07215357128838
ICEYE-X43               
1 60539U 24149BZ  26192.78228862  .00001184  00000+0  10054-3 0  9992
2 60539  97.6813 269.4175 0006754   2.2764 357.8489 14.99780913103803
ICEYE-X39               
1 60546U 24149CG  26192.75947700  .00002501  00000+0  20551-3 0  9993
2 60546  97.6781 269.4505 0007010  56.0311 304.1578 15.00057313103801
ICEYE-X33               
1 60548U 24149CJ  26190.83635085  .00003143  00000+0  25135-3 0  9998
2 60548  97.7345 269.8614 0001952  73.3938 286.7500 15.00937312103605
