{"fetched_at":"2026-07-12T07:15:43.345Z","source":"https://celestrak.org/NORAD/elements/gp.php?NAME=ICEYE&FORMAT=JSON","constellation":"iceye","records":[{"OBJECT_NAME":"ICEYE-X2","OBJECT_ID":"2018-099AU","EPOCH":"2026-07-11T22:17:44.149344","CLASSIFICATION_TYPE":"U","MEAN_MOTION":15.18016444,"ECCENTRICITY":0.00093939,"INCLINATION":97.4355,"RA_OF_ASC_NODE":246.3363,"ARG_OF_PERICENTER":206.4593,"MEAN_ANOMALY":153.6162,"EPHEMERIS_TYPE":0,"NORAD_CAT_ID":43800,"ELEMENT_SET_NO":999,"REV_AT_EPOCH":41657,"BSTAR":0.0001538948,"MEAN_MOTION_DOT":0.00003066,"MEAN_MOTION_DDOT":0},{"OBJECT_NAME":"ICEYE-X4","OBJECT_ID":"2019-038D","EPOCH":"2026-07-11T22:14:14.022816","CLASSIFICATION_TYPE":"U","MEAN_MOTION":15.29834836,"ECCENTRICITY":0.00125289,"INCLINATION":97.8753,"RA_OF_ASC_NODE":227.3013,"ARG_OF_PERICENTER":209.864,"MEAN_ANOMALY":150.1885,"EPHEMERIS_TYPE":0,"NORAD_CAT_ID":44390,"ELEMENT_SET_NO":999,"REV_AT_EPOCH":38558,"BSTAR":0.00024748113,"MEAN_MOTION_DOT":0.00007082,"MEAN_MOTION_DDOT":0},{"OBJECT_NAME":"ICEYE-X7","OBJECT_ID":"2020-068L","EPOCH":"2026-07-11T23:09:45.949824","CLASSIFICATION_TYPE":"U","MEAN_MOTION":15.32052766,"ECCENTRICITY":0.00057255,"INCLINATION":97.7499,"RA_OF_ASC_NODE":160.6282,"ARG_OF_PERICENTER":227.0147,"MEAN_ANOMALY":133.0614,"EPHEMERIS_TYPE":0,"NORAD_CAT_ID":46496,"ELEMENT_SET_NO":999,"REV_AT_EPOCH":31858,"BSTAR":0.00021791892,"MEAN_MOTION_DOT":0.00006662,"MEAN_MOTION_DDOT":0},{"OBJECT_NAME":"ICEYE-X6","OBJECT_ID":"2020-068M","EPOCH":"2026-07-11T22:20:39.459264","CLASSIFICATION_TYPE":"U","MEAN_MOTION":15.04655085,"ECCENTRICITY":0.00075075,"INCLINATION":98.0983,"RA_OF_ASC_NODE":187.7879,"ARG_OF_PERICENTER":19.4503,"MEAN_ANOMALY":340.7006,"EPHEMERIS_TYPE":0,"NORAD_CAT_ID":46497,"ELEMENT_SET_NO":999,"REV_AT_EPOCH":31695,"BSTAR":0.00015934028,"MEAN_MOTION_DOT":0.00002173,"MEAN_MOTION_DDOT":0},{"OBJECT_NAME":"ICEYE-X21","OBJECT_ID":"2023-001AS","EPOCH":"2026-06-24T05:11:18.420288","CLASSIFICATION_TYPE":"U","MEAN_MOTION":16.24069885,"ECCENTRICITY":0.00123774,"INCLINATION":97.3001,"RA_OF_ASC_NODE":262.6152,"ARG_OF_PERICENTER":285.9702,"MEAN_ANOMALY":74.0225,"EPHEMERIS_TYPE":0,"NORAD_CAT_ID":55049,"ELEMENT_SET_NO":999,"REV_AT_EPOCH":19475,"BSTAR":0.000602142,"MEAN_MOTION_DOT":0.01585954,"MEAN_MOTION_DDOT":0.000002396838},{"OBJECT_NAME":"ICEYE-X25","OBJECT_ID":"2023-084AH","EPOCH":"2026-07-11T22:08:50.745120","CLASSIFICATION_TYPE":"U","MEAN_MOTION":15.62608842,"ECCENTRICITY":0.00041354,"INCLINATION":97.5899,"RA_OF_ASC_NODE":340.9208,"ARG_OF_PERICENTER":195.4082,"MEAN_ANOMALY":164.7051,"EPHEMERIS_TYPE":0,"NORAD_CAT_ID":56963,"ELEMENT_SET_NO":999,"REV_AT_EPOCH":17183,"BSTAR":0.00032648345,"MEAN_MOTION_DOT":0.00029096,"MEAN_MOTION_DDOT":0},{"OBJECT_NAME":"ICEYE-X31","OBJECT_ID":"2023-174AJ","EPOCH":"2026-07-11T23:28:49.382976","CLASSIFICATION_TYPE":"U","MEAN_MOTION":15.3510801,"ECCENTRICITY":0.00023936,"INCLINATION":97.378,"RA_OF_ASC_NODE":268.7235,"ARG_OF_PERICENTER":195.7085,"MEAN_ANOMALY":164.4085,"EPHEMERIS_TYPE":0,"NORAD_CAT_ID":58288,"ELEMENT_SET_NO":999,"REV_AT_EPOCH":14855,"BSTAR":0.0003196259,"MEAN_MOTION_DOT":0.00010813,"MEAN_MOTION_DDOT":0},{"OBJECT_NAME":"ICEYE-X34","OBJECT_ID":"2023-174AQ","EPOCH":"2026-07-11T19:37:24.752640","CLASSIFICATION_TYPE":"U","MEAN_MOTION":15.70506949,"ECCENTRICITY":0.00015189,"INCLINATION":97.3866,"RA_OF_ASC_NODE":285.2894,"ARG_OF_PERICENTER":206.226,"MEAN_ANOMALY":153.8926,"EPHEMERIS_TYPE":0,"NORAD_CAT_ID":58294,"ELEMENT_SET_NO":999,"REV_AT_EPOCH":14960,"BSTAR":0.00086420884,"MEAN_MOTION_DOT":0.00106943,"MEAN_MOTION_DDOT":0},{"OBJECT_NAME":"ICEYE-X35","OBJECT_ID":"2023-174AY","EPOCH":"2026-07-11T23:21:20.851200","CLASSIFICATION_TYPE":"U","MEAN_MOTION":15.54917627,"ECCENTRICITY":0.00081128,"INCLINATION":97.3791,"RA_OF_ASC_NODE":278.2705,"ARG_OF_PERICENTER":117.9471,"MEAN_ANOMALY":242.2606,"EPHEMERIS_TYPE":0,"NORAD_CAT_ID":58302,"ELEMENT_SET_NO":999,"REV_AT_EPOCH":14919,"BSTAR":0.00055451029,"MEAN_MOTION_DOT":0.00037128,"MEAN_MOTION_DDOT":0},{"OBJECT_NAME":"ICEYE-X38","OBJECT_ID":"2024-043C","EPOCH":"2026-07-11T22:03:07.643808","CLASSIFICATION_TYPE":"U","MEAN_MOTION":15.13074383,"ECCENTRICITY":0.00026503,"INCLINATION":97.8426,"RA_OF_ASC_NODE":337.3531,"ARG_OF_PERICENTER":30.4945,"MEAN_ANOMALY":329.6439,"EPHEMERIS_TYPE":0,"NORAD_CAT_ID":59100,"ELEMENT_SET_NO":999,"REV_AT_EPOCH":11541,"BSTAR":0.00014395222,"MEAN_MOTION_DOT":0.00002476,"MEAN_MOTION_DDOT":0},{"OBJECT_NAME":"ICEYE-X37","OBJECT_ID":"2024-043E","EPOCH":"2026-07-11T19:51:40.205952","CLASSIFICATION_TYPE":"U","MEAN_MOTION":15.0627988,"ECCENTRICITY":0.00136445,"INCLINATION":97.8333,"RA_OF_ASC_NODE":330.2216,"ARG_OF_PERICENTER":286.8147,"MEAN_ANOMALY":73.1582,"EPHEMERIS_TYPE":0,"NORAD_CAT_ID":59102,"ELEMENT_SET_NO":999,"REV_AT_EPOCH":12879,"BSTAR":0.00011239056,"MEAN_MOTION_DOT":0.00001587,"MEAN_MOTION_DDOT":0},{"OBJECT_NAME":"ICEYE-X36","OBJECT_ID":"2024-043F","EPOCH":"2026-07-11T16:25:21.341856","CLASSIFICATION_TYPE":"U","MEAN_MOTION":15.07215357,"ECCENTRICITY":0.00050497,"INCLINATION":97.8388,"RA_OF_ASC_NODE":331.198,"ARG_OF_PERICENTER":227.4607,"MEAN_ANOMALY":132.6194,"EPHEMERIS_TYPE":0,"NORAD_CAT_ID":59103,"ELEMENT_SET_NO":999,"REV_AT_EPOCH":12883,"BSTAR":0.00014770752,"MEAN_MOTION_DOT":0.00002159,"MEAN_MOTION_DDOT":0},{"OBJECT_NAME":"ICEYE-X43","OBJECT_ID":"2024-149BZ","EPOCH":"2026-07-11T18:46:29.736768","CLASSIFICATION_TYPE":"U","MEAN_MOTION":14.99780913,"ECCENTRICITY":0.00067542,"INCLINATION":97.6813,"RA_OF_ASC_NODE":269.4175,"ARG_OF_PERICENTER":2.2764,"MEAN_ANOMALY":357.8489,"EPHEMERIS_TYPE":0,"NORAD_CAT_ID":60539,"ELEMENT_SET_NO":999,"REV_AT_EPOCH":10380,"BSTAR":0.00010053928,"MEAN_MOTION_DOT":0.00001184,"MEAN_MOTION_DDOT":0},{"OBJECT_NAME":"ICEYE-X39","OBJECT_ID":"2024-149CG","EPOCH":"2026-07-11T18:13:38.812800","CLASSIFICATION_TYPE":"U","MEAN_MOTION":15.00057313,"ECCENTRICITY":0.00070104,"INCLINATION":97.6781,"RA_OF_ASC_NODE":269.4505,"ARG_OF_PERICENTER":56.0311,"MEAN_ANOMALY":304.1578,"EPHEMERIS_TYPE":0,"NORAD_CAT_ID":60546,"ELEMENT_SET_NO":999,"REV_AT_EPOCH":10380,"BSTAR":0.00020551291,"MEAN_MOTION_DOT":0.00002501,"MEAN_MOTION_DDOT":0},{"OBJECT_NAME":"ICEYE-X33","OBJECT_ID":"2024-149CJ","EPOCH":"2026-07-09T20:04:20.713440","CLASSIFICATION_TYPE":"U","MEAN_MOTION":15.00937312,"ECCENTRICITY":0.0001952,"INCLINATION":97.7345,"RA_OF_ASC_NODE":269.8614,"ARG_OF_PERICENTER":73.3938,"MEAN_ANOMALY":286.75,"EPHEMERIS_TYPE":0,"NORAD_CAT_ID":60548,"ELEMENT_SET_NO":999,"REV_AT_EPOCH":10360,"BSTAR":0.00025134873,"MEAN_MOTION_DOT":0.00003143,"MEAN_MOTION_DDOT":0}]}
